CCSDS_OMM_VERS = 2.0
CREATION_DATE  = 
ORIGINATOR     = 

OBJECT_NAME    = UNKNOWN
OBJECT_ID      = 
CENTER_NAME    = EARTH
REF_FRAME      = TEME
TIME_SYSTEM    = UTC
MEAN_ELEMENT_THEORY = SGP/SGP4

EPOCH          = 2025-12-05T08:46:32.292192
MEAN_MOTION    = 13.38008298
ECCENTRICITY   = .0209466
INCLINATION    = 67.1353
RA_OF_ASC_NODE = 192.8652
ARG_OF_PERICENTER = 39.4957
MEAN_ANOMALY   = 143.2524

EPHEMERIS_TYPE = 0
CLASSIFICATION_TYPE = U
NORAD_CAT_ID   = 81317
ELEMENT_SET_NO = 999
REV_AT_EPOCH   = 58764
BSTAR          = .68438E-3
MEAN_MOTION_DOT = .346E-5
MEAN_MOTION_DDOT = 0

CCSDS_OMM_VERS = 2.0
CREATION_DATE  = 
ORIGINATOR     = 

OBJECT_NAME    = UNKNOWN
OBJECT_ID      = 
CENTER_NAME    = EARTH
REF_FRAME      = TEME
TIME_SYSTEM    = UTC
MEAN_ELEMENT_THEORY = SGP/SGP4

EPOCH          = 2025-12-01T12:22:59.634336
MEAN_MOTION    = 14.46261535
ECCENTRICITY   = .0346503
INCLINATION    = 65.7509
RA_OF_ASC_NODE = 60.2980
ARG_OF_PERICENTER = 319.1450
MEAN_ANOMALY   = 38.4133

EPHEMERIS_TYPE = 0
CLASSIFICATION_TYPE = U
NORAD_CAT_ID   = 81323
ELEMENT_SET_NO = 999
REV_AT_EPOCH   = 11143
BSTAR          = .20924E-2
MEAN_MOTION_DOT = .15905E-3
MEAN_MOTION_DDOT = 0

CCSDS_OMM_VERS = 2.0
CREATION_DATE  = 
ORIGINATOR     = 

OBJECT_NAME    = UNKNOWN
OBJECT_ID      = 
CENTER_NAME    = EARTH
REF_FRAME      = TEME
TIME_SYSTEM    = UTC
MEAN_ELEMENT_THEORY = SGP/SGP4

EPOCH          = 2025-12-01T13:42:47.041056
MEAN_MOTION    = 13.22101347
ECCENTRICITY   = .083082
INCLINATION    = 65.8164
RA_OF_ASC_NODE = 155.7167
ARG_OF_PERICENTER = 35.0925
MEAN_ANOMALY   = 330.2044

EPHEMERIS_TYPE = 0
CLASSIFICATION_TYPE = U
NORAD_CAT_ID   = 81329
ELEMENT_SET_NO = 999
REV_AT_EPOCH   = 57660
BSTAR          = .54271E-3
MEAN_MOTION_DOT = .1428E-4
MEAN_MOTION_DDOT = 0

CCSDS_OMM_VERS = 2.0
CREATION_DATE  = 
ORIGINATOR     = 

OBJECT_NAME    = UNKNOWN
OBJECT_ID      = 
CENTER_NAME    = EARTH
REF_FRAME      = TEME
TIME_SYSTEM    = UTC
MEAN_ELEMENT_THEORY = SGP/SGP4

EPOCH          = 2025-12-05T15:38:13.360992
MEAN_MOTION    = 15.03715375
ECCENTRICITY   = .000689
INCLINATION    = 85.8736
RA_OF_ASC_NODE = 203.1410
ARG_OF_PERICENTER = 297.4434
MEAN_ANOMALY   = 62.6098

EPHEMERIS_TYPE = 0
CLASSIFICATION_TYPE = U
NORAD_CAT_ID   = 81343
ELEMENT_SET_NO = 999
REV_AT_EPOCH   = 45325
BSTAR          = .78146E-3
MEAN_MOTION_DOT = .10751E-3
MEAN_MOTION_DDOT = 0

CCSDS_OMM_VERS = 2.0
CREATION_DATE  = 
ORIGINATOR     = 

OBJECT_NAME    = UNKNOWN
OBJECT_ID      = 
CENTER_NAME    = EARTH
REF_FRAME      = TEME
TIME_SYSTEM    = UTC
MEAN_ELEMENT_THEORY = SGP/SGP4

EPOCH          = 2025-11-25T08:14:39.207840
MEAN_MOTION    = 13.78792920
ECCENTRICITY   = .0115496
INCLINATION    = 66.7976
RA_OF_ASC_NODE = 93.6300
ARG_OF_PERICENTER = 335.0340
MEAN_ANOMALY   = 24.5172

EPHEMERIS_TYPE = 0
CLASSIFICATION_TYPE = U
NORAD_CAT_ID   = 81359
ELEMENT_SET_NO = 999
REV_AT_EPOCH   = 60308
BSTAR          = .86426E-3
MEAN_MOTION_DOT = .85E-5
MEAN_MOTION_DDOT = 0

CCSDS_OMM_VERS = 2.0
CREATION_DATE  = 
ORIGINATOR     = 

OBJECT_NAME    = UNKNOWN
OBJECT_ID      = 
CENTER_NAME    = EARTH
REF_FRAME      = TEME
TIME_SYSTEM    = UTC
MEAN_ELEMENT_THEORY = SGP/SGP4

EPOCH          = 2025-12-04T14:38:20.753088
MEAN_MOTION    = 13.45126086
ECCENTRICITY   = .0709617
INCLINATION    = 65.8840
RA_OF_ASC_NODE = 91.2408
ARG_OF_PERICENTER = 85.6311
MEAN_ANOMALY   = 282.5415

EPHEMERIS_TYPE = 0
CLASSIFICATION_TYPE = U
NORAD_CAT_ID   = 81366
ELEMENT_SET_NO = 999
REV_AT_EPOCH   = 6486
BSTAR          = .63297E-3
MEAN_MOTION_DOT = .1701E-4
MEAN_MOTION_DDOT = 0

CCSDS_OMM_VERS = 2.0
CREATION_DATE  = 
ORIGINATOR     = 

OBJECT_NAME    = UNKNOWN
OBJECT_ID      = 
CENTER_NAME    = EARTH
REF_FRAME      = TEME
TIME_SYSTEM    = UTC
MEAN_ELEMENT_THEORY = SGP/SGP4

EPOCH          = 2025-12-05T11:49:47.388576
MEAN_MOTION    = 14.70202489
ECCENTRICITY   = .0070646
INCLINATION    = 98.8157
RA_OF_ASC_NODE = 75.3349
ARG_OF_PERICENTER = 27.8469
MEAN_ANOMALY   = 332.6488

EPHEMERIS_TYPE = 0
CLASSIFICATION_TYPE = U
NORAD_CAT_ID   = 81371
ELEMENT_SET_NO = 999
REV_AT_EPOCH   = 64077
BSTAR          = .11223E-2
MEAN_MOTION_DOT = .6971E-4
MEAN_MOTION_DDOT = 0

CCSDS_OMM_VERS = 2.0
CREATION_DATE  = 
ORIGINATOR     = 

OBJECT_NAME    = UNKNOWN
OBJECT_ID      = 
CENTER_NAME    = EARTH
REF_FRAME      = TEME
TIME_SYSTEM    = UTC
MEAN_ELEMENT_THEORY = SGP/SGP4

EPOCH          = 2025-11-29T09:34:47.901792
MEAN_MOTION    = 14.36060054
ECCENTRICITY   = .0084351
INCLINATION    = 71.0497
RA_OF_ASC_NODE = 25.4805
ARG_OF_PERICENTER = 107.3419
MEAN_ANOMALY   = 253.6963

EPHEMERIS_TYPE = 0
CLASSIFICATION_TYPE = U
NORAD_CAT_ID   = 81386
ELEMENT_SET_NO = 999
REV_AT_EPOCH   = 62232
BSTAR          = .16717E-2
MEAN_MOTION_DOT = .5021E-4
MEAN_MOTION_DDOT = 0

CCSDS_OMM_VERS = 2.0
CREATION_DATE  = 
ORIGINATOR     = 

OBJECT_NAME    = UNKNOWN
OBJECT_ID      = 
CENTER_NAME    = EARTH
REF_FRAME      = TEME
TIME_SYSTEM    = UTC
MEAN_ELEMENT_THEORY = SGP/SGP4

EPOCH          = 2025-12-01T09:39:40.423680
MEAN_MOTION    = 12.35641014
ECCENTRICITY   = .0165355
INCLINATION    = 103.1053
RA_OF_ASC_NODE = 223.3677
ARG_OF_PERICENTER = 165.3581
MEAN_ANOMALY   = 195.2347

EPHEMERIS_TYPE = 0
CLASSIFICATION_TYPE = U
NORAD_CAT_ID   = 81390
ELEMENT_SET_NO = 999
REV_AT_EPOCH   = 49869
BSTAR          = -.2518E-2
MEAN_MOTION_DOT = -.383E-5
MEAN_MOTION_DDOT = 0

CCSDS_OMM_VERS = 2.0
CREATION_DATE  = 
ORIGINATOR     = 

OBJECT_NAME    = UNKNOWN
OBJECT_ID      = 
CENTER_NAME    = EARTH
REF_FRAME      = TEME
TIME_SYSTEM    = UTC
MEAN_ELEMENT_THEORY = SGP/SGP4

EPOCH          = 2025-12-03T04:50:16.396224
MEAN_MOTION    = 13.81578618
ECCENTRICITY   = .0040042
INCLINATION    = 100.3973
RA_OF_ASC_NODE = 324.4639
ARG_OF_PERICENTER = 52.4080
MEAN_ANOMALY   = 324.2866

EPHEMERIS_TYPE = 0
CLASSIFICATION_TYPE = U
NORAD_CAT_ID   = 81392
ELEMENT_SET_NO = 999
REV_AT_EPOCH   = 60086
BSTAR          = .40937E-2
MEAN_MOTION_DOT = .4343E-4
MEAN_MOTION_DDOT = 0

CCSDS_OMM_VERS = 2.0
CREATION_DATE  = 
ORIGINATOR     = 

OBJECT_NAME    = UNKNOWN
OBJECT_ID      = 
CENTER_NAME    = EARTH
REF_FRAME      = TEME
TIME_SYSTEM    = UTC
MEAN_ELEMENT_THEORY = SGP/SGP4

EPOCH          = 2025-11-30T21:10:58.911456
MEAN_MOTION    = 13.88804744
ECCENTRICITY   = .0160706
INCLINATION    = 99.4716
RA_OF_ASC_NODE = 22.8652
ARG_OF_PERICENTER = 255.2060
MEAN_ANOMALY   = 103.1244

EPHEMERIS_TYPE = 0
CLASSIFICATION_TYPE = U
NORAD_CAT_ID   = 81405
ELEMENT_SET_NO = 999
REV_AT_EPOCH   = 56015
BSTAR          = .13072E-2
MEAN_MOTION_DOT = .1703E-4
MEAN_MOTION_DDOT = 0

CCSDS_OMM_VERS = 2.0
CREATION_DATE  = 
ORIGINATOR     = 

OBJECT_NAME    = UNKNOWN
OBJECT_ID      = 
CENTER_NAME    = EARTH
REF_FRAME      = TEME
TIME_SYSTEM    = UTC
MEAN_ELEMENT_THEORY = SGP/SGP4

EPOCH          = 2025-11-29T23:25:05.808288
MEAN_MOTION    = 13.12098095
ECCENTRICITY   = .0866885
INCLINATION    = 65.8150
RA_OF_ASC_NODE = 183.4971
ARG_OF_PERICENTER = 325.4234
MEAN_ANOMALY   = 29.3212

EPHEMERIS_TYPE = 0
CLASSIFICATION_TYPE = U
NORAD_CAT_ID   = 81406
ELEMENT_SET_NO = 999
REV_AT_EPOCH   = 53200
BSTAR          = .77531E-3
MEAN_MOTION_DOT = .1902E-4
MEAN_MOTION_DDOT = 0

