UNKNOWN                 
1 81317U          25339.36565153  .00000346  00000+0  68438-3 0  9990
2 81317  67.1353 192.8652 0209466  39.4957 143.2524 13.38008298587647
UNKNOWN                 
1 81323U          25335.51596799  .00015905  00000+0  20924-2 0  9994
2 81323  65.7509  60.2980 0346503 319.1450  38.4133 14.46261535111439
UNKNOWN                 
1 81329U          25335.57137779  .00001428  00000+0  54271-3 0  9993
2 81329  65.8164 155.7167 0830820  35.0925 330.2044 13.22101347576606
UNKNOWN                 
1 81343U          25339.65154353  .00010751  00000+0  78146-3 0  9995
2 81343  85.8736 203.1410 0006890 297.4434  62.6098 15.03715375453252
UNKNOWN                 
1 81359U          25329.34350935  .00000850  00000+0  86426-3 0  9990
2 81359  66.7976  93.6300 0115496 335.0340  24.5172 13.78792920603080
UNKNOWN                 
1 81366U          25338.60996242  .00001701  00000+0  63297-3 0  9991
2 81366  65.8840  91.2408 0709617  85.6311 282.5415 13.45126086 64862
UNKNOWN                 
1 81371U          25339.49290959  .00006971  00000+0  11223-2 0  9992
2 81371  98.8157  75.3349 0070646  27.8469 332.6488 14.70202489640775
UNKNOWN                 
1 81386U          25333.39916553  .00005021  00000+0  16717-2 0  9994
2 81386  71.0497  25.4805 0084351 107.3419 253.6963 14.36060054622324
UNKNOWN                 
1 81390U          25335.40255120 -.00000383  00000+0 -25180-2 0  9991
2 81390 103.1053 223.3677 0165355 165.3581 195.2347 12.35641014498694
UNKNOWN                 
1 81392U          25337.20157866  .00004343  00000+0  40937-2 0  9996
2 81392 100.3973 324.4639 0040042  52.4080 324.2866 13.81578618600867
UNKNOWN                 
1 81405U          25334.88262629  .00001703  00000+0  13072-2 0  9993
2 81405  99.4716  22.8652 0160706 255.2060 103.1244 13.88804744560150
UNKNOWN                 
1 81406U          25333.97576167  .00001902  00000+0  77531-3 0  9990
2 81406  65.8150 183.4971 0866885 325.4234  29.3212 13.12098095532000
